{
  "norad_id": 58494,
  "name": "STARLINK-30981",
  "history": [
    {
      "epoch": "2026-03-28T16:17:56.460480Z",
      "apogee_km": 483.7346682539255,
      "perigee_km": 482.4004384164846,
      "latitude_deg": 3.165124103127654e-05,
      "longitude_deg": -114.45563092363398,
      "height_km": 482.79274299709203,
      "semi_major_axis_km": 6861.204553335205,
      "eccentricity": 9.723e-05,
      "inclination_deg": 43.0026,
      "raan_deg": 316.1257,
      "arg_perigee_deg": 274.4221,
      "mean_anomaly_deg": 85.652,
      "mean_motion_rev_day": 15.27573836
    },
    {
      "epoch": "2026-03-29T00:08:42.637056Z",
      "apogee_km": 483.7865550276383,
      "perigee_km": 482.2331913755452,
      "latitude_deg": 5.942863643696151e-05,
      "longitude_deg": 125.68386582353992,
      "height_km": 482.98155956566586,
      "semi_major_axis_km": 6861.146873201592,
      "eccentricity": 0.0001132,
      "inclination_deg": 43.0041,
      "raan_deg": 314.2798,
      "arg_perigee_deg": 255.4729,
      "mean_anomaly_deg": 104.5998,
      "mean_motion_rev_day": 15.27593099
    },
    {
      "epoch": "2026-03-29T23:41:06.078624Z",
      "apogee_km": 483.88661336166115,
      "perigee_km": 482.3881110409566,
      "latitude_deg": -3.137127614882362e-05,
      "longitude_deg": 126.07994922479486,
      "height_km": 482.82111734675516,
      "semi_major_axis_km": 6861.274362201309,
      "eccentricity": 0.0001092,
      "inclination_deg": 43.0035,
      "raan_deg": 308.7404,
      "arg_perigee_deg": 277.1369,
      "mean_anomaly_deg": 82.9358,
      "mean_motion_rev_day": 15.27550523
    },
    {
      "epoch": "2026-03-29T23:41:06.079488Z",
      "apogee_km": 483.88695642537914,
      "perigee_km": 482.3877679772386,
      "latitude_deg": -2.7455628648905644e-05,
      "longitude_deg": 126.07994979022267,
      "height_km": 482.82107472871627,
      "semi_major_axis_km": 6861.274362201309,
      "eccentricity": 0.00010925,
      "inclination_deg": 43.0035,
      "raan_deg": 308.7404,
      "arg_perigee_deg": 277.1369,
      "mean_anomaly_deg": 82.9358,
      "mean_motion_rev_day": 15.27550523
    },
    {
      "epoch": "2026-03-30T15:22:39.389088Z",
      "apogee_km": 484.2877184348472,
      "perigee_km": 481.869277196176,
      "latitude_deg": 1.5445909346987208e-05,
      "longitude_deg": -113.64626532232094,
      "height_km": 482.89203543606834,
      "semi_major_axis_km": 6861.215497815511,
      "eccentricity": 0.00017624,
      "inclination_deg": 43.0026,
      "raan_deg": 305.0474,
      "arg_perigee_deg": 268.2816,
      "mean_anomaly_deg": 91.7834,
      "mean_motion_rev_day": 15.27570181
    },
    {
      "epoch": "2026-03-30T21:39:16.318080Z",
      "apogee_km": 483.67083633625407,
      "perigee_km": 482.37791908623694,
      "latitude_deg": -1.3413666835913414e-05,
      "longitude_deg": 150.46464926654252,
      "height_km": 482.61436411710133,
      "semi_major_axis_km": 6861.161377711245,
      "eccentricity": 9.422e-05,
      "inclination_deg": 43.001,
      "raan_deg": 303.57,
      "arg_perigee_deg": 286.7609,
      "mean_anomaly_deg": 73.3139,
      "mean_motion_rev_day": 15.27588255
    },
    {
      "epoch": "2026-03-31T21:11:37.332672Z",
      "apogee_km": 483.87929076560795,
      "perigee_km": 482.18046584653985,
      "latitude_deg": 1.6386847950986125e-05,
      "longitude_deg": 150.8714022077043,
      "height_km": 482.8006613283799,
      "semi_major_axis_km": 6861.166878306074,
      "eccentricity": 0.0001238,
      "inclination_deg": 43.0016,
      "raan_deg": 298.031,
      "arg_perigee_deg": 270.402,
      "mean_anomaly_deg": 89.669,
      "mean_motion_rev_day": 15.27586418
    },
    {
      "epoch": "2026-04-01T20:43:57.438336Z",
      "apogee_km": 483.784892169243,
      "perigee_km": 482.27131914693473,
      "latitude_deg": 5.872597093432904e-06,
      "longitude_deg": 151.28100960315334,
      "height_km": 482.62248336139567,
      "semi_major_axis_km": 6861.165105658089,
      "eccentricity": 0.0001103,
      "inclination_deg": 43.0017,
      "raan_deg": 292.4911,
      "arg_perigee_deg": 283.9356,
      "mean_anomaly_deg": 76.1373,
      "mean_motion_rev_day": 15.2758701
    },
    {
      "epoch": "2026-04-02T13:59:40.331616Z",
      "apogee_km": 483.9823277752985,
      "perigee_km": 482.0698471762944,
      "latitude_deg": 2.035193283797092e-06,
      "longitude_deg": -112.41883756421664,
      "height_km": 482.7701396762585,
      "semi_major_axis_km": 6861.163087475796,
      "eccentricity": 0.00013937,
      "inclination_deg": 42.9995,
      "raan_deg": 288.4289,
      "arg_perigee_deg": 271.9532,
      "mean_anomaly_deg": 88.116,
      "mean_motion_rev_day": 15.27587684
    },
    {
      "epoch": "2026-04-03T13:32:01.194144Z",
      "apogee_km": 483.52999565617574,
      "perigee_km": 482.59893061762887,
      "latitude_deg": 4.0622814092484016e-05,
      "longitude_deg": -112.01184101613353,
      "height_km": 482.7455889658009,
      "semi_major_axis_km": 6861.201463136902,
      "eccentricity": 6.785e-05,
      "inclination_deg": 42.9975,
      "raan_deg": 282.8895,
      "arg_perigee_deg": 281.7322,
      "mean_anomaly_deg": 78.3454,
      "mean_motion_rev_day": 15.27574868
    },
    {
      "epoch": "2026-04-04T13:04:22.418688Z",
      "apogee_km": 483.6934459333361,
      "perigee_km": 482.4331806597893,
      "latitude_deg": 2.2345431664184984e-05,
      "longitude_deg": -111.60571844807546,
      "height_km": 482.6818846096595,
      "semi_major_axis_km": 6861.200313296562,
      "eccentricity": 9.184e-05,
      "inclination_deg": 43.0002,
      "raan_deg": 277.3508,
      "arg_perigee_deg": 284.4962,
      "mean_anomaly_deg": 75.5788,
      "mean_motion_rev_day": 15.27575252
    },
    {
      "epoch": "2026-04-05T12:36:43.463520Z",
      "apogee_km": 483.728094846193,
      "perigee_km": 482.4449088268793,
      "latitude_deg": 3.852859147156789e-05,
      "longitude_deg": -111.20000909913766,
      "height_km": 482.8646055712241,
      "semi_major_axis_km": 6861.223501836536,
      "eccentricity": 9.351e-05,
      "inclination_deg": 43.0001,
      "raan_deg": 271.8109,
      "arg_perigee_deg": 269.8398,
      "mean_anomaly_deg": 90.2347,
      "mean_motion_rev_day": 15.27567508
    },
    {
      "epoch": "2026-04-05T18:53:20.734656Z",
      "apogee_km": 484.0375233074583,
      "perigee_km": 482.1029373167994,
      "latitude_deg": -1.7397528319442522e-05,
      "longitude_deg": 152.90994635004915,
      "height_km": 482.7992849101411,
      "semi_major_axis_km": 6861.207230312129,
      "eccentricity": 0.00014098,
      "inclination_deg": 43.0015,
      "raan_deg": 270.334,
      "arg_perigee_deg": 272.8343,
      "mean_anomaly_deg": 87.2347,
      "mean_motion_rev_day": 15.27572942
    },
    {
      "epoch": "2026-04-07T11:41:25.466784Z",
      "apogee_km": 484.05128591301855,
      "perigee_km": 482.14496034640797,
      "latitude_deg": -3.875770773403169e-05,
      "longitude_deg": -110.38654836272286,
      "height_km": 482.76017505631495,
      "semi_major_axis_km": 6861.235123129713,
      "eccentricity": 0.00013892,
      "inclination_deg": 43.0018,
      "raan_deg": 260.7329,
      "arg_perigee_deg": 276.9209,
      "mean_anomaly_deg": 83.1484,
      "mean_motion_rev_day": 15.27563627
    },
    {
      "epoch": "2026-04-07T17:58:02.489088Z",
      "apogee_km": 484.1730595914469,
      "perigee_km": 481.95551933469324,
      "latitude_deg": 4.4636763801639765e-05,
      "longitude_deg": 153.72399499864753,
      "height_km": 482.5861957159848,
      "semi_major_axis_km": 6861.20128946307,
      "eccentricity": 0.0001616,
      "inclination_deg": 43.0011,
      "raan_deg": 259.2554,
      "arg_perigee_deg": 283.301,
      "mean_anomaly_deg": 76.7662,
      "mean_motion_rev_day": 15.27574926
    },
    {
      "epoch": "2026-04-08T11:13:45.517152Z",
      "apogee_km": 483.8817399900581,
      "perigee_km": 482.2211951571371,
      "latitude_deg": 1.3949620969426487e-05,
      "longitude_deg": -109.976646695372,
      "height_km": 482.6321862694441,
      "semi_major_axis_km": 6861.188467573597,
      "eccentricity": 0.00012101,
      "inclination_deg": 42.9998,
      "raan_deg": 255.193,
      "arg_perigee_deg": 283.6402,
      "mean_anomaly_deg": 76.4315,
      "mean_motion_rev_day": 15.27579208
    },
    {
      "epoch": "2026-04-09T02:55:19.208640Z",
      "apogee_km": 483.8062792910132,
      "perigee_km": 482.29997361065307,
      "latitude_deg": 2.1796108887779072e-05,
      "longitude_deg": 10.29350251492954,
      "height_km": 482.6966616639585,
      "semi_major_axis_km": 6861.190126450833,
      "eccentricity": 0.00010977,
      "inclination_deg": 42.9962,
      "raan_deg": 251.498,
      "arg_perigee_deg": 280.1317,
      "mean_anomaly_deg": 79.9411,
      "mean_motion_rev_day": 15.27578654
    },
    {
      "epoch": "2026-04-09T21:45:11.657088Z",
      "apogee_km": 483.79497698493196,
      "perigee_km": 482.249843885701,
      "latitude_deg": -2.5181556202640706e-05,
      "longitude_deg": 82.6232435605022,
      "height_km": 482.611263456536,
      "semi_major_axis_km": 6861.159410435316,
      "eccentricity": 0.0001126,
      "inclination_deg": 42.9987,
      "raan_deg": 247.0697,
      "arg_perigee_deg": 284.0436,
      "mean_anomaly_deg": 76.029,
      "mean_motion_rev_day": 15.27588912
    },
    {
      "epoch": "2026-04-11T16:07:25.827744Z",
      "apogee_km": 483.6706803855077,
      "perigee_km": 482.47545759148943,
      "latitude_deg": -1.7389976990104878e-05,
      "longitude_deg": 155.35410493430723,
      "height_km": 482.74501928088625,
      "semi_major_axis_km": 6861.210068988498,
      "eccentricity": 8.71e-05,
      "inclination_deg": 42.9979,
      "raan_deg": 237.0997,
      "arg_perigee_deg": 280.0284,
      "mean_anomaly_deg": 80.0469,
      "mean_motion_rev_day": 15.27571994
    },
    {
      "epoch": "2026-04-13T01:04:44.709024Z",
      "apogee_km": 483.98946094667554,
      "perigee_km": 482.26385313692845,
      "latitude_deg": 2.1446162197799226e-05,
      "longitude_deg": 11.918049546576556,
      "height_km": 482.94940525639396,
      "semi_major_axis_km": 6861.263657041802,
      "eccentricity": 0.00012575,
      "inclination_deg": 42.999,
      "raan_deg": 229.3457,
      "arg_perigee_deg": 266.9249,
      "mean_anomaly_deg": 93.1459,
      "mean_motion_rev_day": 15.27554098
    },
    {
      "epoch": "2026-04-14T19:26:56.616864Z",
      "apogee_km": 483.82312834014647,
      "perigee_km": 482.297198091047,
      "latitude_deg": 5.443628519226654e-05,
      "longitude_deg": 84.6566974960743,
      "height_km": 482.8555405958055,
      "semi_major_axis_km": 6861.197163215596,
      "eccentricity": 0.0001112,
      "inclination_deg": 42.9997,
      "raan_deg": 219.374,
      "arg_perigee_deg": 268.5759,
      "mean_anomaly_deg": 91.4966,
      "mean_motion_rev_day": 15.27576304
    },
    {
      "epoch": "2026-04-15T08:00:12.024000Z",
      "apogee_km": 483.7273900345899,
      "perigee_km": 482.400296567479,
      "latitude_deg": -8.855064380972771e-06,
      "longitude_deg": -107.12745139697773,
      "height_km": 482.8935632413246,
      "semi_major_axis_km": 6861.200843301034,
      "eccentricity": 9.671e-05,
      "inclination_deg": 42.9991,
      "raan_deg": 216.4197,
      "arg_perigee_deg": 265.3755,
      "mean_anomaly_deg": 94.6986,
      "mean_motion_rev_day": 15.27575075
    }
  ]
}